OBJECT_NAME,OBJECT_ID,EPOCH,MEAN_MOTION,ECCENTRICITY,INCLINATION,RA_OF_ASC_NODE,ARG_OF_PERICENTER,MEAN_ANOMALY,EPHEMERIS_TYPE,CLASSIFICATION_TYPE,NORAD_CAT_ID,ELEMENT_SET_NO,REV_AT_EPOCH,BSTAR,MEAN_MOTION_DOT,MEAN_MOTION_DDOT
FENGYUN 1C DEB,1999-025BUL,2024-07-07T08:10:11.354016,14.24465517,.0060301,98.5245,209.0855,297.9759,61.5326,0,U,31448,999,56842,.78327E-3,.1806E-4,0
FENGYUN 1C DEB,1999-025BUM,2024-07-05T23:13:01.181856,14.32397261,.0148146,98.6262,244.5010,19.9656,340.7241,0,U,31449,999,90120,.29273E-3,.847E-5,0
FENGYUN 1C DEB,1999-025BUP,2024-07-06T21:09:43.258752,14.12331884,.0030573,98.8270,234.0375,260.4649,275.7782,0,U,31451,999,88611,.4439E-3,.777E-5,0
FENGYUN 1C DEB,1999-025BUQ,2024-07-02T05:48:22.834080,14.13651846,.0040565,98.6215,182.2286,198.8905,161.0765,0,U,31452,999,88859,.56184E-3,.1027E-4,0
FENGYUN 1C DEB,1999-025BUT,2024-07-07T06:44:44.442816,14.10229588,.022228,98.5495,195.5463,104.6422,257.9506,0,U,31455,999,88722,.34046E-3,.719E-5,0
FENGYUN 1C DEB,1999-025BUU,2024-07-06T12:56:54.842496,14.36790053,.0075962,98.5742,284.2414,81.7986,279.1807,0,U,31456,999,89922,.10588E-2,.3188E-4,0
FENGYUN 1C DEB,1999-025BUX,2024-07-07T01:25:54.307776,14.33846834,.010766,98.1754,114.9973,275.1278,83.7628,0,U,31459,999,57022,.13497E-2,.3967E-4,0
FENGYUN 1C DEB,1999-025BVA,2024-07-04T00:33:39.104928,14.11830159,.0031528,98.7319,212.9592,263.9256,125.8226,0,U,31462,999,88420,.43857E-3,.761E-5,0
FENGYUN 1C DEB,1999-025BVB,2024-07-05T02:05:19.005792,14.33421997,.0223508,99.0126,136.7880,138.5162,223.3230,0,U,31463,999,57178,.44012E-3,.1552E-4,0
FENGYUN 1C DEB,1999-025BVC,2024-07-07T09:32:46.109760,14.11420978,.0043273,98.8643,238.1545,285.7925,87.1168,0,U,31464,999,87294,.31147E-3,.525E-5,0
FENGYUN 1C DEB,1999-025BVE,2024-07-07T00:23:24.527904,14.17378452,.0303565,99.0739,100.5561,358.9582,1.0925,0,U,31466,999,88906,.24715E-3,.732E-5,0
FENGYUN 1C DEB,1999-025BVG,2024-07-07T06:48:14.767200,14.42488913,.017512,98.1598,199.5210,323.2411,35.6873,0,U,31468,999,59813,.58045E-3,.2264E-4,0
FENGYUN 1C DEB,1999-025BVM,2024-07-07T22:35:14.179776,14.23574751,.0074296,98.5904,227.5336,104.0391,16.7124,0,U,31473,999,88815,.15881E-2,.368E-4,0
FENGYUN 1C DEB,1999-025BVN,2024-07-05T19:08:19.455360,14.06650061,.0072302,99.1713,219.3228,229.7923,129.6903,0,U,31474,999,87578,.18094E-2,.3028E-4,0
FENGYUN 1C DEB,1999-025BVP,2024-07-05T20:12:38.005056,14.32692160,.0225808,99.0022,48.9636,208.4614,150.4085,0,U,31475,999,88546,.79442E-3,.2813E-4,0
FENGYUN 1C DEB,1999-025BVQ,2024-07-07T03:12:00.569952,14.16675786,.0055352,98.9366,253.0028,228.2800,131.3632,0,U,31476,999,88269,.12812E-2,.2553E-4,0
FENGYUN 1C DEB,1999-025BVR,2024-07-07T23:20:26.836512,14.02217190,.0112116,98.8523,187.2409,45.9860,315.0479,0,U,31477,999,88077,.24365E-3,.352E-5,0
FENGYUN 1C DEB,1999-025BVS,2024-07-07T12:55:12.163008,14.90146636,.0008668,102.5554,210.4475,293.1657,219.5770,0,U,31478,999,57889,.81087E-2,.79381E-3,0
FENGYUN 1C DEB,1999-025BVU,2024-07-07T15:56:39.778656,13.79349117,.0375766,98.3565,90.5935,222.7174,134.4204,0,U,31480,999,86236,.21419E-2,.3701E-4,0
FENGYUN 1C DEB,1999-025BVW,2024-07-07T07:35:42.872352,14.31721770,.0096013,98.3890,202.8391,40.8599,332.2072,0,U,31482,999,89628,.10072E-2,.2786E-4,0
FENGYUN 1C DEB,1999-025BVX,2024-07-06T18:16:36.476256,14.05538483,.0134647,102.5167,289.0470,70.2055,80.6467,0,U,31483,999,87313,.27588E-2,.4797E-4,0
FENGYUN 1C DEB,1999-025BVY,2024-07-07T01:25:43.820544,14.21986297,.013012,101.8257,285.8023,100.1813,261.4058,0,U,31484,999,88373,.69816E-2,.16789E-3,0
FENGYUN 1C DEB,1999-025BVZ,2024-07-06T02:08:32.375904,13.33921541,.0473798,102.7176,238.3904,8.5626,352.3228,0,U,31485,999,83431,.30059E-2,.2751E-4,0
FENGYUN 1C DEB,1999-025BWA,2024-07-07T22:27:42.770016,14.50434424,.0016167,102.2633,191.5202,174.9596,185.1749,0,U,31486,999,89256,.47674E-2,.18645E-3,0
FENGYUN 1C DEB,1999-025BWB,2024-07-08T04:48:28.759104,13.93972185,.012639,102.4200,172.9018,123.6383,251.4561,0,U,31487,999,87212,.14845E-2,.2027E-4,0
FENGYUN 1C DEB,1999-025BWC,2024-06-29T08:46:18.217632,15.00197195,.0035218,102.6569,232.7973,240.2222,119.5478,0,U,31488,999,696,.14112E-1,.183254E-2,0
FENGYUN 1C DEB,1999-025BWE,2024-07-03T11:06:17.398368,14.11486828,.0055599,99.3302,65.4469,305.7176,53.8828,0,U,31491,999,56272,.19437E-2,.3529E-4,0
FENGYUN 1C DEB,1999-025BWF,2024-07-07T18:50:00.541536,14.41322748,.0108413,98.8510,317.0624,164.1293,196.3336,0,U,31492,999,88915,.42193E-2,.14621E-3,0
FENGYUN 1C DEB,1999-025BWG,2024-07-03T22:29:15.281952,13.90650655,.0121918,100.1337,77.7598,118.7771,242.5693,0,U,31493,999,52537,.10774E-2,.1376E-4,0
FENGYUN 1C DEB,1999-025BWJ,2024-07-06T20:17:18.675456,14.23321135,.0027278,99.1669,32.7082,244.7744,115.0605,0,U,31495,999,55920,.13951E-2,.3127E-4,0
FENGYUN 1C DEB,1999-025BWL,2024-07-06T18:10:36.869952,14.37621071,.0173109,98.3220,180.4230,115.7438,57.5031,0,U,31497,999,90021,.24585E-3,.831E-5,0
FENGYUN 1C DEB,1999-025BWM,2024-07-04T12:07:52.280544,13.73230985,.0231372,98.4691,209.9500,123.1366,239.2219,0,U,31498,999,85500,.23141E-2,.2565E-4,0
FENGYUN 1C DEB,1999-025BWR,2024-07-07T17:38:57.298560,14.08421440,.0075355,99.1041,266.9818,259.9242,99.3418,0,U,31502,999,88205,.16389E-2,.2837E-4,0
FENGYUN 1C DEB,1999-025BWS,2024-07-07T15:19:32.154240,14.18156809,.0054226,100.1079,334.8481,187.2818,172.7570,0,U,31503,999,88606,.14455E-2,.2958E-4,0
FENGYUN 1C DEB,1999-025BWU,2024-07-07T19:17:24.232416,14.54344232,.0029812,101.9182,309.0953,33.6158,326.6909,0,U,31505,999,89322,.42757E-2,.18241E-3,0
FENGYUN 1C DEB,1999-025BWW,2024-07-04T20:44:12.880608,14.48093277,.0122966,98.2522,225.1469,252.1709,284.0524,0,U,31507,999,90397,.46756E-3,.1864E-4,0
FENGYUN 1C DEB,1999-025BWX,2024-06-22T00:25:03.270144,14.42189746,.0049506,98.6351,261.0552,168.8233,191.4068,0,U,31508,999,89101,.23787E-2,.7912E-4,0
FENGYUN 1C DEB,1999-025BWY,2024-07-07T02:25:25.825440,13.90348657,.0207529,99.0016,315.7414,208.8333,150.1229,0,U,31509,999,86671,.2151E-2,.3133E-4,0
FENGYUN 1C DEB,1999-025BWZ,2024-07-05T19:06:12.195936,14.22243754,.0040306,98.5466,195.6425,60.0404,114.3806,0,U,31510,999,89018,.69977E-3,.1524E-4,0
FENGYUN 1C DEB,1999-025BXA,2024-07-06T16:43:21.922464,14.21647654,.0116815,99.0453,334.0888,294.6728,64.2321,0,U,31511,999,88333,.93645E-3,.2155E-4,0
FENGYUN 1C DEB,1999-025BXB,2024-07-07T09:51:22.219776,14.39727812,.0151792,98.8658,60.4892,265.3035,272.1773,0,U,31512,999,57959,.43787E-3,.1516E-4,0
FENGYUN 1C DEB,1999-025BXC,2024-07-06T16:04:50.847744,14.23187116,.0032073,98.8737,271.1048,205.1030,154.8590,0,U,31513,999,65386,.1885E-2,.424E-4,0
FENGYUN 1C DEB,1999-025BXD,2024-07-06T02:06:00.849312,14.15304557,.0057533,99.2714,60.1261,158.0308,202.3349,0,U,31514,999,88143,.17343E-2,.3384E-4,0
FENGYUN 1C DEB,1999-025BXE,2024-06-16T00:28:20.872992,14.07521981,.0055755,98.9229,254.5593,235.2153,124.3762,0,U,31515,999,50691,.13473E-2,.2259E-4,0
FENGYUN 1C DEB,1999-025BXF,2024-07-07T01:37:57.728064,14.23284506,.0152341,98.7967,297.0625,314.9576,221.4745,0,U,31516,999,89036,.27936E-3,.666E-5,0
FENGYUN 1C DEB,1999-025BXJ,2024-07-07T05:57:45.939168,14.21298566,.0053649,98.5589,194.3173,325.3225,34.4459,0,U,31519,999,57322,.54595E-3,.1165E-4,0
FENGYUN 1C DEB,1999-025BXM,2024-07-07T08:26:25.829376,14.02427947,.0042723,98.7547,222.5908,225.0571,134.7127,0,U,31522,999,87655,.45506E-3,.663E-5,0
FENGYUN 1C DEB,1999-025BXN,2024-07-07T09:07:58.080576,14.13765675,.0038864,98.8347,239.3473,157.7312,266.3416,0,U,31523,999,88612,.3581E-4,.24E-6,0
FENGYUN 1C DEB,1999-025BXP,2024-07-06T09:30:43.073568,14.05465970,.0283893,99.3522,46.9217,135.0190,36.8841,0,U,31524,999,55780,.3594E-3,.79E-5,0
FENGYUN 1C DEB,1999-025BXS,2024-07-05T21:38:41.680320,13.22702783,.0451907,98.9235,62.9278,140.3037,223.2096,0,U,31527,999,83297,.71223E-3,.48E-5,0
FENGYUN 1C DEB,1999-025BXW,2024-07-06T21:14:12.903648,14.29753607,.0263436,98.4482,241.7328,26.0223,335.3933,0,U,31531,999,56431,.99198E-3,.3664E-4,0
FENGYUN 1C DEB,1999-025BXX,2024-07-06T22:52:22.859904,14.71022890,.0058534,99.1710,95.7932,240.5982,118.9370,0,U,31532,999,57275,.70286E-2,.44519E-3,0
FENGYUN 1C DEB,1999-025BXY,2024-07-07T08:59:35.060640,14.25921620,.0068228,99.0240,61.2200,61.4047,299.3974,0,U,31533,999,58659,.42157E-3,.983E-5,0
FENGYUN 1C DEB,1999-025BYA,2024-07-05T22:30:10.743840,14.25212426,.0090655,98.0987,72.3859,281.2918,77.8087,0,U,31535,999,64446,.73097E-3,.1753E-4,0
FENGYUN 1C DEB,1999-025BYB,2024-07-07T04:31:56.115552,14.38463122,.0347795,98.2621,102.9179,305.6060,51.3182,0,U,31536,999,88685,.19344E-2,.11988E-3,0
FENGYUN 1C DEB,1999-025BYC,2024-07-07T03:22:49.272384,13.95630841,.0440777,99.2765,317.4839,348.6863,10.4634,0,U,31537,999,85900,.12084E-2,.3688E-4,0
FENGYUN 1C DEB,1999-025BYD,2024-07-06T07:42:22.601088,14.55433110,.0043122,98.2856,39.1430,147.1414,213.2477,0,U,31538,999,59267,.36007E-2,.15834E-3,0
FENGYUN 1C DEB,1999-025BYF,2024-07-07T00:29:18.760128,14.54639269,.0207183,99.0117,294.8449,99.1167,263.3531,0,U,31540,999,90655,.13818E-2,.7822E-4,0
FENGYUN 1C DEB,1999-025BYG,2024-07-07T16:59:13.856064,14.56963856,.0097043,98.9538,280.8233,47.2046,313.7259,0,U,31541,999,90842,.11824E-2,.5611E-4,0
FENGYUN 1C DEB,1999-025BYH,2024-07-06T21:52:19.150464,14.17715202,.0047332,98.7762,241.9752,277.7662,81.8140,0,U,31542,999,88502,.11936E-2,.2414E-4,0
FENGYUN 1C DEB,1999-025BYK,2024-07-07T10:03:05.418144,14.11845305,.0031857,98.8834,240.0448,315.9067,43.9565,0,U,31544,999,88365,.81584E-3,.1452E-4,0
FENGYUN 1C DEB,1999-025BYM,2024-07-06T05:43:20.903232,14.05886610,.0160637,98.2579,294.4800,202.5614,156.8439,0,U,31546,999,87393,.31867E-2,.5821E-4,0
FENGYUN 1C DEB,1999-025BYN,2024-07-07T12:07:44.036256,14.17457088,.0056503,99.1271,211.5290,306.1805,53.4150,0,U,31547,999,56587,.15863E-2,.322E-4,0
FENGYUN 1C DEB,1999-025BYR,2024-07-07T06:55:24.846528,14.35343976,.0204949,98.3076,199.3804,45.4540,316.3181,0,U,31550,999,57931,.10878E-2,.3914E-4,0
FENGYUN 1C DEB,1999-025BYS,2024-06-30T00:46:44.399712,14.40970192,.0051279,98.7772,101.9776,294.5415,65.0432,0,U,31551,999,62445,.11351E-1,.37192E-3,0
